start=new Date('2023-03-11T00:00:00.000Z').valueOf();
sats=[{"TLE_LINE2":"2 47587  53.0518 247.0022 0001157  86.8588 273.2533 15.06404482115904","TLE_LINE1":"1 47587U 21009AR  23069.74831157  .00007102  00000-0  49515-3 0  9996","ELEMENT_SET_NO":"999","FILE":"3856975","NORAD_CAT_ID":"47587","PERIAPSIS":"546.399","OBJECT_ID":"2021-009AR","CLASSIFICATION_TYPE":"U","DECAY_DATE":null,"MEAN_MOTION":"15.06404482","MEAN_ELEMENT_THEORY":"SGP4","APOAPSIS":"548.001","EPHEMERIS_TYPE":"0","RA_OF_ASC_NODE":"247.0022","SEMIMAJOR_AXIS":"6925.335","INCLINATION":"53.0518","OBJECT_TYPE":"PAYLOAD","LAUNCH_DATE":"2021-02-04","MEAN_MOTION_DOT":"0.00007102","BSTAR":"0.00049515000000","OBJECT_NAME":"STARLINK-1991","COUNTRY_CODE":"US","REV_AT_EPOCH":"11590","ARG_OF_PERICENTER":"86.8588","TIME_SYSTEM":"UTC","ECCENTRICITY":"0.00011570","MEAN_MOTION_DDOT":"0.0000000000000","SITE":"AFETR","CENTER_NAME":"EARTH","RCS_SIZE":"LARGE","MEAN_ANOMALY":"273.2533","EPOCH":"2023-03-10T17:57:34.119648","GP_ID":"227814802","PERIOD":"95.592","REF_FRAME":"TEME"},{"TLE_LINE2":"2 47588  53.0515 256.7362 0000564  28.8558 331.2462 15.06402080115773","TLE_LINE1":"1 47588U 21009AS  23069.80636376  .00003053  00000-0  22372-3 0  9993","ELEMENT_SET_NO":"999","FILE":"3856975","NORAD_CAT_ID":"47588","PERIAPSIS":"546.817","OBJECT_ID":"2021-009AS","CLASSIFICATION_TYPE":"U","DECAY_DATE":null,"MEAN_MOTION":"15.06402080","MEAN_ELEMENT_THEORY":"SGP4","APOAPSIS":"547.598","EPHEMERIS_TYPE":"0","RA_OF_ASC_NODE":"256.7362","SEMIMAJOR_AXIS":"6925.342","INCLINATION":"53.0515","OBJECT_TYPE":"PAYLOAD","LAUNCH_DATE":"2021-02-04","MEAN_MOTION_DOT":"0.00003053","BSTAR":"0.00022372000000","OBJECT_NAME":"STARLINK-1993","COUNTRY_CODE":"US","REV_AT_EPOCH":"11577","ARG_OF_PERICENTER":"28.8558","TIME_SYSTEM":"UTC","ECCENTRICITY":"0.00005640","MEAN_MOTION_DDOT":"0.0000000000000","SITE":"AFETR","CENTER_NAME":"EARTH","RCS_SIZE":"LARGE","MEAN_ANOMALY":"331.2462","EPOCH":"2023-03-10T19:21:09.828864","GP_ID":"227815052","PERIOD":"95.592","REF_FRAME":"TEME"},{"RCS_SIZE":"LARGE","GP_ID":"227815804","REF_FRAME":"TEME","PERIOD":"95.593","MEAN_ANOMALY":"251.9361","EPOCH":"2023-03-10T21:23:13.406496","TIME_SYSTEM":"UTC","ECCENTRICITY":"0.00014280","REV_AT_EPOCH":"11578","COUNTRY_CODE":"US","ARG_OF_PERICENTER":"108.1783","CENTER_NAME":"EARTH","MEAN_MOTION_DDOT":"0.0000000000000","SITE":"AFETR","MEAN_MOTION_DOT":"0.00020501","BSTAR":"0.00139160000000","OBJECT_TYPE":"PAYLOAD","LAUNCH_DATE":"2021-02-04","OBJECT_NAME":"STARLINK-1994","OBJECT_ID":"2021-009AT","FILE":"3856975","TLE_LINE1":"1 47589U 21009AT  23069.89112739  .00020501  00000-0  13916-2 0  9995","ELEMENT_SET_NO":"999","TLE_LINE2":"2 47589  53.0516 256.3622 0001428 108.1783 251.9361 15.06389185115789","PERIAPSIS":"546.258","NORAD_CAT_ID":"47589","EPHEMERIS_TYPE":"0","APOAPSIS":"548.236","INCLINATION":"53.0516","RA_OF_ASC_NODE":"256.3622","SEMIMAJOR_AXIS":"6925.382","CLASSIFICATION_TYPE":"U","MEAN_ELEMENT_THEORY":"SGP4","DECAY_DATE":null,"MEAN_MOTION":"15.06389185"},{"OBJECT_ID":"2021-009AU","NORAD_CAT_ID":"47590","PERIAPSIS":"546.805","TLE_LINE2":"2 47590  53.0517 276.4062 0000602  88.7358 271.3700 15.06397168115500","TLE_LINE1":"1 47590U 21009AU  23069.88192866  .00002433  00000-0  18214-3 0  9996","ELEMENT_SET_NO":"999","FILE":"3856975","SEMIMAJOR_AXIS":"6925.357","RA_OF_ASC_NODE":"276.4062","INCLINATION":"53.0517","APOAPSIS":"547.639","EPHEMERIS_TYPE":"0","MEAN_MOTION":"15.06397168","DECAY_DATE":null,"MEAN_ELEMENT_THEORY":"SGP4","CLASSIFICATION_TYPE":"U","BSTAR":"0.00018214000000","MEAN_MOTION_DOT":"0.00002433","LAUNCH_DATE":"2021-02-04","OBJECT_TYPE":"PAYLOAD","OBJECT_NAME":"STARLINK-1995","ECCENTRICITY":"0.00006020","TIME_SYSTEM":"UTC","ARG_OF_PERICENTER":"88.7358","REV_AT_EPOCH":"11550","COUNTRY_CODE":"US","CENTER_NAME":"EARTH","SITE":"AFETR","MEAN_MOTION_DDOT":"0.0000000000000","RCS_SIZE":"LARGE","PERIOD":"95.592","REF_FRAME":"TEME","GP_ID":"227815555","EPOCH":"2023-03-10T21:09:58.636224","MEAN_ANOMALY":"271.3700"},{"OBJECT_ID":"2021-009AV","TLE_LINE2":"2 47591  53.0517 256.3780 0001151  94.3104 265.8016 15.06416770115786","FILE":"3856975","TLE_LINE1":"1 47591U 21009AV  23069.88744816  .00021281  00000-0  14426-2 0  9997","ELEMENT_SET_NO":"999","NORAD_CAT_ID":"47591","PERIAPSIS":"546.365","APOAPSIS":"547.959","EPHEMERIS_TYPE":"0","RA_OF_ASC_NODE":"256.3780","SEMIMAJOR_AXIS":"6925.297","INCLINATION":"53.0517","CLASSIFICATION_TYPE":"U","MEAN_MOTION":"15.06416770","DECAY_DATE":null,"MEAN_ELEMENT_THEORY":"SGP4","MEAN_MOTION_DOT":"0.00021281","BSTAR":"0.00144260000000","OBJECT_TYPE":"PAYLOAD","LAUNCH_DATE":"2021-02-04","OBJECT_NAME":"STARLINK-1996","TIME_SYSTEM":"UTC","ECCENTRICITY":"0.00011510","REV_AT_EPOCH":"11578","COUNTRY_CODE":"US","ARG_OF_PERICENTER":"94.3104","CENTER_NAME":"EARTH","MEAN_MOTION_DDOT":"0.0000000000000","SITE":"AFETR","RCS_SIZE":"LARGE","GP_ID":"227814303","PERIOD":"95.591","REF_FRAME":"TEME","MEAN_ANOMALY":"265.8016","EPOCH":"2023-03-10T21:17:55.521024"},{"TIME_SYSTEM":"UTC","ECCENTRICITY":"0.00017140","COUNTRY_CODE":"US","REV_AT_EPOCH":"11549","ARG_OF_PERICENTER":"84.1835","CENTER_NAME":"EARTH","MEAN_MOTION_DDOT":"0.0000000000000","SITE":"AFETR","RCS_SIZE":"LARGE","GP_ID":"227814553","REF_FRAME":"TEME","PERIOD":"95.592","MEAN_ANOMALY":"275.9349","EPOCH":"2023-03-10T20:27:30.627648","OBJECT_ID":"2021-009AW","ELEMENT_SET_NO":"999","TLE_LINE1":"1 47592U 21009AW  23069.85243782  .00001894  00000-0  14598-3 0  9990","FILE":"3856975","TLE_LINE2":"2 47592  53.0510 276.5305 0001714  84.1835 275.9349 15.06403794115491","PERIAPSIS":"546.015","NORAD_CAT_ID":"47592","EPHEMERIS_TYPE":"0","APOAPSIS":"548.389","INCLINATION":"53.0510","SEMIMAJOR_AXIS":"6925.337","RA_OF_ASC_NODE":"276.5305","CLASSIFICATION_TYPE":"U","MEAN_ELEMENT_THEORY":"SGP4","MEAN_MOTION":"15.06403794","DECAY_DATE":null,"MEAN_MOTION_DOT":"0.00001894","BSTAR":"0.00014598000000","OBJECT_TYPE":"PAYLOAD","LAUNCH_DATE":"2021-02-04","OBJECT_NAME":"STARLINK-1997"},{"OBJECT_NAME":"STARLINK-1998","BSTAR":"0.00015893000000","MEAN_MOTION_DOT":"0.00002087","LAUNCH_DATE":"2021-02-04","OBJECT_TYPE":"PAYLOAD","SEMIMAJOR_AXIS":"6925.353","RA_OF_ASC_NODE":"276.3694","INCLINATION":"53.0543","APOAPSIS":"547.873","EPHEMERIS_TYPE":"0","DECAY_DATE":null,"MEAN_MOTION":"15.06398395","MEAN_ELEMENT_THEORY":"SGP4","CLASSIFICATION_TYPE":"U","OBJECT_ID":"2021-009AX","NORAD_CAT_ID":"47593","PERIAPSIS":"546.564","TLE_LINE2":"2 47593  53.0543 276.3694 0000945  93.3707 266.7390 15.06398395115508","ELEMENT_SET_NO":"999","TLE_LINE1":"1 47593U 21009AX  23069.88930259  .00002087  00000-0  15893-3 0  9990","FILE":"3856975","PERIOD":"95.592","REF_FRAME":"TEME","GP_ID":"227815305","EPOCH":"2023-03-10T21:20:35.743776","MEAN_ANOMALY":"266.7390","RCS_SIZE":"LARGE","CENTER_NAME":"EARTH","SITE":"AFETR","MEAN_MOTION_DDOT":"0.0000000000000","ECCENTRICITY":"0.00009450","TIME_SYSTEM":"UTC","ARG_OF_PERICENTER":"93.3707","COUNTRY_CODE":"US","REV_AT_EPOCH":"11550"},{"CENTER_NAME":"EARTH","MEAN_MOTION_DDOT":"0.0000000000000","SITE":"AFETR","TIME_SYSTEM":"UTC","ECCENTRICITY":"0.00012610","REV_AT_EPOCH":"11536","COUNTRY_CODE":"US","ARG_OF_PERICENTER":"59.2987","GP_ID":"227816055","PERIOD":"95.593","REF_FRAME":"TEME","MEAN_ANOMALY":"300.8126","EPOCH":"2023-03-09T23:50:48.788736","RCS_SIZE":"LARGE","APOAPSIS":"548.108","EPHEMERIS_TYPE":"0","RA_OF_ASC_NODE":"280.3854","SEMIMAJOR_AXIS":"6925.370","INCLINATION":"53.0552","CLASSIFICATION_TYPE":"U","DECAY_DATE":null,"MEAN_MOTION":"15.06393124","MEAN_ELEMENT_THEORY":"SGP4","OBJECT_ID":"2021-009AY","TLE_LINE2":"2 47594  53.0552 280.3854 0001261  59.2987 300.8126 15.06393124115361","TLE_LINE1":"1 47594U 21009AY  23068.99362024  .00042530  00000-0  28575-2 0  9998","ELEMENT_SET_NO":"999","FILE":"3856975","NORAD_CAT_ID":"47594","PERIAPSIS":"546.361","OBJECT_NAME":"STARLINK-1999","MEAN_MOTION_DOT":"0.00042530","BSTAR":"0.00285750000000","OBJECT_TYPE":"PAYLOAD","LAUNCH_DATE":"2021-02-04"},{"APOAPSIS":"547.649","EPHEMERIS_TYPE":"0","SEMIMAJOR_AXIS":"6925.183","RA_OF_ASC_NODE":"276.5851","INCLINATION":"53.0510","CLASSIFICATION_TYPE":"U","DECAY_DATE":null,"MEAN_MOTION":"15.06454177","MEAN_ELEMENT_THEORY":"SGP4","OBJECT_ID":"2021-009AZ","TLE_LINE2":"2 47595  53.0510 276.5851 0000868  62.8401 297.2676 15.06454177115492","ELEMENT_SET_NO":"999","TLE_LINE1":"1 47595U 21009AZ  23069.84134848  .00015414  00000-0  10499-2 0  9992","FILE":"3856975","NORAD_CAT_ID":"47595","PERIAPSIS":"546.446","OBJECT_NAME":"STARLINK-2000","MEAN_MOTION_DOT":"0.00015414","BSTAR":"0.00104990000000","OBJECT_TYPE":"PAYLOAD","LAUNCH_DATE":"2021-02-04","CENTER_NAME":"EARTH","MEAN_MOTION_DDOT":"0.0000000000000","SITE":"AFETR","TIME_SYSTEM":"UTC","ECCENTRICITY":"0.00008680","REV_AT_EPOCH":"11549","COUNTRY_CODE":"US","ARG_OF_PERICENTER":"62.8401","GP_ID":"227814803","PERIOD":"95.589","REF_FRAME":"TEME","MEAN_ANOMALY":"297.2676","EPOCH":"2023-03-10T20:11:32.508672","RCS_SIZE":"LARGE"},{"REF_FRAME":"TEME","PERIOD":"95.592","GP_ID":"227815053","EPOCH":"2023-03-10T20:16:52.529088","MEAN_ANOMALY":"261.5458","RCS_SIZE":"LARGE","CENTER_NAME":"EARTH","SITE":"AFETR","MEAN_MOTION_DDOT":"0.0000000000000","ECCENTRICITY":"0.00010570","TIME_SYSTEM":"UTC","ARG_OF_PERICENTER":"98.5651","REV_AT_EPOCH":"11549","COUNTRY_CODE":"US","OBJECT_NAME":"STARLINK-2001","BSTAR":"0.00004230500000","MEAN_MOTION_DOT":"0.00000349","LAUNCH_DATE":"2021-02-04","OBJECT_TYPE":"PAYLOAD","INCLINATION":"53.0538","RA_OF_ASC_NODE":"276.5686","SEMIMAJOR_AXIS":"6925.323","EPHEMERIS_TYPE":"0","APOAPSIS":"547.920","MEAN_ELEMENT_THEORY":"SGP4","DECAY_DATE":null,"MEAN_MOTION":"15.06408286","CLASSIFICATION_TYPE":"U","OBJECT_ID":"2021-009BA","PERIAPSIS":"546.456","NORAD_CAT_ID":"47596","TLE_LINE1":"1 47596U 21009BA  23069.84505242  .00000349  00000-0  42305-4 0  9997","ELEMENT_SET_NO":"999","FILE":"3856975","TLE_LINE2":"2 47596  53.0538 276.5686 0001057  98.5651 261.5458 15.06408286115495"}];
